{"type": "FeatureCollection", "features": [{"geometry": {"coordinates": [[[-97.70614225396466, 30.424020213286383], [-97.73817577064433, 30.39843630715643], [-97.78308509048597, 30.382819601221243], [-97.79803114670449, 30.360600340243508], [-97.82997065331894, 30.32586693322658], [-97.83675766695163, 30.297003632331197], [-97.82455440023864, 30.267316178914513], [-97.80881738179244, 30.248085373105738], [-97.82373473958222, 30.238197835805778], [-97.8377072018895, 30.243298818256505], [-97.85194055653017, 30.224100698353], [-97.8611851415647, 30.214156056750767], [-97.86813100018591, 30.20049553376242], [-97.86094801257843, 30.185274701664298], [-97.82529775561856, 30.169376512323936], [-97.73159909248797, 30.1428589029357], [-97.6525307963047, 30.14630791319314], [-97.55455683135355, 30.26119138948009], [-97.57853545888756, 30.347233095344095], [-97.6529133341751, 30.40348759689705], [-97.70614225396466, 30.424020213286383]]], "type": "Polygon"}, "properties": {"name": "Austin", "provider": "tesla"}, "type": "Feature"}, {"geometry": {"coordinates": [[[-122.59744322000182, 37.859633262663706], [-122.51879841535344, 37.77467314293885], [-122.49887203741359, 37.612400497368014], [-122.44320963629036, 37.61553182529255], [-122.28600862409382, 37.41495338748258], [-122.22007524413723, 37.364292388359615], [-122.13568497768824, 37.344423087822264], [-122.08516536860557, 37.31900162145803], [-122.06145541392752, 37.23507051402723], [-121.99754086534827, 37.20496980521172], [-121.93617721009753, 37.20030042806016], [-121.89150205033177, 37.20944098539994], [-121.82262279021184, 37.18076945228286], [-121.70848885413912, 37.2279464398533], [-121.73118964934298, 37.29690967649506], [-121.82687065207814, 37.43680509213817], [-121.89764237853412, 37.50482660990576], [-121.91073700977901, 37.55494345841274], [-122.01805063930152, 37.634271051525786], [-122.00575573589963, 37.687625550090516], [-122.1630788250119, 37.81042675357082], [-122.19660505571878, 37.864503456897495], [-122.27862059350535, 37.92083656424971], [-122.34416115606193, 37.90410616687936], [-122.33530006488826, 37.85132821596923], [-122.44839965384102, 37.84528539506036], [-122.51420672756575, 37.88461384226366], [-122.59744322000182, 37.859633262663706]]], "type": "Polygon"}, "properties": {"name": "Bay Area", "provider": "tesla"}, "type": "Feature"}, {"type": "Feature", "properties": {"slug": "dallas", "name": "Dallas", "raw_point_count": 26, "probe_lat": 32.817392, "probe_lng": -96.806728, "bbox": [-96.8582, 32.762432, -96.755257, 32.872353], "fetched_on": "2026-04-18", "source": "owner-api.robotaxi_fleet_areas", "provider": "tesla"}, "geometry": {"type": "Polygon", "coordinates": [[[-96.85449981689453, 32.842010498046875], [-96.84552764892578, 32.83464050292969], [-96.85668182373047, 32.82563018798828], [-96.8565444946289, 32.80038833618164], [-96.84673309326172, 32.79903793334961], [-96.82757568359375, 32.78944778442383], [-96.81895446777344, 32.77836990356445], [-96.81343078613281, 32.766502380371094], [-96.80342864990234, 32.76243209838867], [-96.79388427734375, 32.77061462402344], [-96.78775787353516, 32.77354431152344], [-96.78226470947266, 32.77687072753906], [-96.78517150878906, 32.78053665161133], [-96.78614044189453, 32.78439712524414], [-96.7613525390625, 32.806060791015625], [-96.7603530883789, 32.835628509521484], [-96.75981903076172, 32.849647521972656], [-96.75525665283203, 32.857025146484375], [-96.76334381103516, 32.8634033203125], [-96.76171112060547, 32.87223815917969], [-96.7771987915039, 32.872352600097656], [-96.77700805664062, 32.866058349609375], [-96.82574462890625, 32.86771774291992], [-96.84671020507812, 32.86446762084961], [-96.85820007324219, 32.86071014404297], [-96.84564208984375, 32.84888458251953], [-96.85449981689453, 32.842010498046875]]]}}, {"type": "Feature", "properties": {"slug": "houston", "name": "Houston", "raw_point_count": 12, "probe_lat": 29.915209, "probe_lng": -95.574383, "bbox": [-95.624939, 29.858477, -95.523827, 29.971941], "fetched_on": "2026-04-18", "source": "owner-api.robotaxi_fleet_areas", "provider": "tesla"}, "geometry": {"type": "Polygon", "coordinates": [[[-95.62493896484375, 29.917274475097656], [-95.56692504882812, 29.876760482788086], [-95.52423095703125, 29.858476638793945], [-95.5238265991211, 29.926328659057617], [-95.52672576904297, 29.933773040771484], [-95.52588653564453, 29.942068099975586], [-95.52831268310547, 29.948108673095703], [-95.54037475585938, 29.971940994262695], [-95.56429290771484, 29.967500686645508], [-95.56440734863281, 29.958147048950195], [-95.56472778320312, 29.947593688964844], [-95.57422637939453, 29.940336227416992], [-95.62493896484375, 29.917274475097656]]]}}, {"type": "Feature", "properties": {"name": "Miami", "provider": "tesla"}, "geometry": {"type": "Polygon", "coordinates": [[[-80.3212131, 25.8091893], [-80.3069824, 25.8091413], [-80.2996688, 25.8060803], [-80.2624327, 25.8076737], [-80.2564532, 25.8029327], [-80.2558865, 25.7692714], [-80.2593706, 25.7630746], [-80.2594635, 25.763117], [-80.2593348, 25.7575637], [-80.2586936, 25.7571593], [-80.2586172, 25.7530399], [-80.259033, 25.7463572], [-80.2591348, 25.7356279], [-80.2591284, 25.7354766], [-80.284671, 25.7343568], [-80.3103898, 25.7346357], [-80.3206923, 25.7327998], [-80.3217741, 25.7622462], [-80.3690492, 25.7612174], [-80.369915, 25.8052774], [-80.3246185, 25.8053987], [-80.3238973, 25.808154], [-80.3212131, 25.8091893]]]}}, {"type": "Feature", "properties": {"name": "Orlando", "provider": "tesla"}, "geometry": {"type": "Polygon", "coordinates": [[[-81.3312519, 28.5241416], [-81.3096553, 28.5238739], [-81.277052, 28.5104147], [-81.2452741, 28.5101486], [-81.2448614, 28.5035514], [-81.2416702, 28.4879158], [-81.2303503, 28.4511229], [-81.2509183, 28.4504868], [-81.2606877, 28.4479535], [-81.2827985, 28.4475883], [-81.2879406, 28.4478588], [-81.2988423, 28.4510219], [-81.3311344, 28.450836], [-81.3312519, 28.5241416]]]}}, {"type": "Feature", "properties": {"name": "Tampa", "provider": "tesla"}, "geometry": {"type": "Polygon", "coordinates": [[[-82.5178163, 28.0272789], [-82.5173742, 28.0266519], [-82.4873098, 28.026212], [-82.458043, 28.0260865], [-82.4534301, 28.026627], [-82.44882, 28.0258367], [-82.4483444, 27.9985099], [-82.438324, 27.9978673], [-82.4385333, 27.9824398], [-82.437294, 27.9813413], [-82.4341896, 27.9814929], [-82.4343152, 27.9636346], [-82.4504564, 27.9636607], [-82.4524998, 27.9619406], [-82.456414, 27.95615], [-82.4563234, 27.9570899], [-82.4647554, 27.9538916], [-82.4765508, 27.9539107], [-82.4770953, 27.9479575], [-82.4937686, 27.9479844], [-82.4945755, 27.9437551], [-82.5068397, 27.9315519], [-82.5064018, 27.9717407], [-82.5247581, 27.9727885], [-82.5245282, 27.998163], [-82.5178753, 27.9987787], [-82.5178163, 28.0272789]]]}}], "properties": {"updated": "2026-08-03T01:04:39.144500Z"}}